#aV2013  2 21  0  0  0.00000000     288 DD+AD WGS84 FIT  NGA
## 1728 345600.00000000   300.00000000 56344 0.0000000000000
+   31     1  2  3  4  5  6  7  8  9 10 11 12 13 14 15 16 17
+         18 19 20 21 22 23 24 25 26 28 29 30 31 32  0  0  0
+          0  0  0  0  0  0  0  0  0  0  0  0  0  0  0  0  0
+          0  0  0  0  0  0  0  0  0  0  0  0  0  0  0  0  0
+          0  0  0  0  0  0  0  0  0  0  0  0  0  0  0  0  0
++         2  2  2  2  2  2  2  2  2  2  2  2  2  2  2  2  2
++         2  2  2  2  2  2  2  2  2  2  2  2  2  2  2  0  0
++         0  0  0  0  0  0  0  0  0  0  0  0  0  0  0  0  0
++         0  0  0  0  0  0  0  0  0  0  0  0  0  0  0  0  0
++         0  0  0  0  0  0  0  0  0  0  0  0  0  0  0  0  0
%c cc cc ccc ccc cccc cccc cccc cccc ccccc ccccc ccccc ccccc
%c cc cc ccc ccc cccc cccc cccc cccc ccccc ccccc ccccc ccccc
%f  0.0000000  0.000000000  0.00000000000  0.000000000000000
%f  0.0000000  0.000000000  0.00000000000  0.000000000000000
%i    0    0    0    0      0      0      0      0         0
%i    0    0    0    0      0      0      0      0         0
/*      NGA, ST. LOUIS,MO.                                  
/*   EPHEMERIS COMPUTED FROM  1 DAYS OF DATA
/*   EPOCHA SMOOTHER  
/* CCCCCCCCCCCCCCCCCCCCCCCCCCCCCCCCCCCCCCCCCCCCCCCCCCCCCCCCC
*  2013  2 21  3 30  0.00000000                                                 
P  1  10492.782532 -20654.141765 -12946.962522      2.012434                    
V  1  14071.474481  -8803.438286  25556.984442      0.027866                    
P  2 -22015.889649  12438.925497  -7018.956494    419.401956                    
V  2   4521.415407  -8971.101995 -29834.884562      0.015444                    
P  3  12020.485362 -11393.008873  20218.144583    171.197498                    
V  3   9512.395481  25262.574029   8600.995211      0.050251                    
P  4 -20466.939251    659.148677 -17344.596536    140.726614                    
V  4  15170.433777 -15273.073872 -18499.731515      0.111034                    
P  5 -19848.284027   5625.933072  16771.933791   -384.707409                    
V  5 -19418.005188  -9058.157432 -19763.907879     -0.017608                    
P  6  15069.407836  -4444.106795  21501.246932    342.741184                    
V  6   6641.163158  26345.924989   1141.237165     -0.146466                    
P  7  -4224.940412 -15184.343007  21372.853274    183.045292                    
V  7  21455.016381 -16485.803734  -7763.689251      0.043253                    
P  8 -14123.681265  -7216.447842  21520.601008      4.740228                    
V  8  22207.476740 -15113.959339   8984.366420      0.001660                    
P  9 -21435.073694  15200.190316   3453.889095    222.081147                    
V  9   2517.095514  -4839.291124  31848.733390      0.025609                    
P 10 -25409.050895  -8156.570397   2033.204144    -70.637696                    
V 10  -1633.817034  -3844.461013 -30965.210904     -0.013414                    
P 11  11303.576949 -23552.456868  -4311.796108   -355.543995                    
V 11   7079.740778  -1430.574751  29588.813102     -0.036773                    
P 12  -3313.250430  14494.690818 -22039.981086    119.000958                    
V 12 -25925.644140 -10191.673580  -2608.846525      0.020544                    
P 13  -3814.536825 -26065.907952   2695.912475    143.155414                    
V 13   1934.528879  -3760.437000 -32068.215742     -0.029372                    
P 14  13653.343092  13972.666023 -17867.407839    220.610732                    
V 14   1091.018203  22999.655037  18482.590109      0.002134                    
P 15  -6013.686651  21572.675968  14057.650077   -109.067027                    
V 15  -6329.054560 -17118.987341  23773.157523     -0.012705                    
P 16  20695.818635  -3262.803639  16514.575994   -252.446737                    
V 16  18732.154029   9127.977027 -21335.296203     -0.001338                    
P 17 -14579.165374 -12170.911090 -18455.090564     47.568788                    
V 17  -1899.326971 -23735.900737  16727.104432     -0.038405                    
P 18  17645.628714  16205.794393  12222.410554    240.437224                    
V 18 -14932.135577  -2462.801279  25290.188386      0.018733                    
P 19   9528.478893 -18745.958025  15889.875448   -350.389758                    
V 19   3893.707555  20232.313741  21831.804797     -0.032077                    
P 20   1263.950619 -16203.135528 -21193.654287     85.023438                    
V 20  25591.494383   7350.683948  -4053.438297      0.016134                    
P 21   9298.363160  13171.397138  21628.649901   -281.873886                    
V 21 -20461.701016  16602.468930  -1897.478468     -0.022305                    
P 22  24522.373945  10302.451874   1569.530890    159.075661                    
V 22  -2984.600237   2949.569450  30775.795901      0.010541                    
P 23    605.549440 -25471.778392  -6696.425265    111.896721                    
V 23   4493.668147   8056.018964 -30350.254266     -0.037016                    
P 24 -13462.830699  20628.919396  -9892.393178     -1.419245                    
V 24 -11228.600058   6210.544532  28271.911639     -0.006462                    
P 25   9487.463165  16704.778865 -18415.686289     71.953977                    
V 25 -22344.612576  -6547.139201 -17396.604983      0.030413                    
P 26 -12779.404965  10109.590574  20256.777687    -93.527253                    
V 26  -3344.767042 -27031.665580  11377.213550      0.141193                    
P 28 -22429.169429 -13542.465967   5504.817440    234.550302                    
V 28   6423.374308    720.890924  31095.220392      0.033889                    
P 29   5327.024610  25892.511248   2866.391438    409.883561                    
V 29  -2134.771454   3869.257473 -31555.223622      0.035989                    
P 30  25600.168602   1836.259628   6437.963029   -220.951905                    
V 30   7709.803523   4748.937812 -30382.677262      0.076294                    
P 31  21569.877258  -4590.093651 -14821.303687    303.375279                    
V 31 -13881.296975  13043.481781 -23678.474792      0.016841                    
P 32  10065.029972 -12068.924362 -21210.232475   -537.289249                    
V 32  24519.868857  12211.811341   5163.458920     -0.032667                    
EOF
